CSS (TIANHE)            
1 48274U 21035A   23324.06517574  .00025914  00000+0  28998-3 0  9994
2 48274  41.4715 286.8234 0005470 186.5553 173.5216 15.62102377146203
